STARLINK-2542           
1 48292U 21036S   25039.74487654  .00000243  00000+0  35182-4 0  9992
2 48292  53.0565  50.2671 0001514  97.1860 262.9301 15.06396189209512
STARLINK-2550           
1 48293U 21036T   25039.32835843  .00000600  00000+0  59183-4 0  9998
2 48293  53.0564  51.9743 0001272  90.0783 270.0352 15.06396351208872
STARLINK-2533           
1 48294U 21036U   25039.32465414 -.00002889  00000+0 -17514-3 0  9996
2 48294  53.0547  51.9914 0001494  94.3284 265.7876 15.06397845208874
STARLINK-2535           
1 48295U 21036V   25039.32098222  .00000796  00000+0  72381-4 0  9993
2 48295  53.0564  52.0076 0001362  91.2321 268.8824 15.06387382208879
STARLINK-2559           
1 48298U 21036Y   25039.30991407  .00002169  00000+0  16447-3 0  9997
2 48298  53.0540  52.0503 0001406  93.4996 266.6153 15.06401789208871
STARLINK-2557           
1 48299U 21036Z   25039.30622873  .00001044  00000+0  89007-4 0  9990
2 48299  53.0550  52.0714 0001382  99.6842 260.4303 15.06391593208878
STARLINK-2538           
1 48300U 21036AA  25039.36429111  .00001358  00000+0  11008-3 0  9992
2 48300  53.0560  61.8139 0001658  99.3431 260.7746 15.06391137208742
STARLINK-2537           
1 48301U 21036AB  25039.49330363 -.00001217  00000+0 -62840-4 0  9994
2 48301  53.0555  61.2317 0001348  94.1083 266.0060 15.06379626208759
STARLINK-2530           
1 48303U 21036AD  25039.53759249  .00000244  00000+0  35279-4 0  9992
2 48303  53.0563  61.5726 0001371  93.0624 267.0522 15.06394813208751
STARLINK-2524           
1 48304U 21036AE  25039.34953717 -.00002737  00000+0 -16496-3 0  9998
2 48304  53.0549  61.8782 0001380  96.0011 264.1136 15.06395061208737
STARLINK-2519           
1 48305U 21036AF  25039.33487189 -.00001789  00000+0 -10127-3 0  9994
2 48305  53.0553  62.5236 0002164  88.5791 271.5446 15.06388892209312
STARLINK-2523           
1 48306U 21036AG  25039.74021314  .00044418  00000+0  29746-2 0  9994
2 48306  53.0550  60.1238 0001864  95.5821 264.5381 15.06493293209383
STARLINK-2517           
1 48309U 21036AK  25039.33111326  .00003664  00000+0  26471-3 0  9996
2 48309  53.0549  61.9617 0001375  88.6718 271.4428 15.06400462208732
STARLINK-2536           
1 48310U 21036AL  25039.32742773  .00000599  00000+0  59112-4 0  9996
2 48310  53.0555  61.9771 0001807 102.9021 257.2170 15.06402020208737
STARLINK-2534           
1 48311U 21036AM  25039.32374454  .00001995  00000+0  15279-3 0  9990
2 48311  53.0559  61.9938 0001653  94.1659 265.9519 15.06403089208734
STARLINK-2061           
1 48312U 21036AN  25039.78447869  .00011464  00000+0  78766-3 0  9994
2 48312  53.0544  59.9265 0001513  87.5637 272.5525 15.06381930209446
STARLINK-2549           
1 48314U 21036AQ  25039.37903137  .00000730  00000+0  67894-4 0  9991
2 48314  53.0550  61.7461 0001333  93.2476 266.8665 15.06392119208732
STARLINK-2506           
1 48315U 21036AR  25039.37535236  .00005682  00000+0  40008-3 0  9991
2 48315  53.0558  61.7621 0001719  82.4376 277.6808 15.06396840208730
STARLINK-2507           
1 48316U 21036AS  25039.37165018 -.00000302  00000+0 -14101-5 0  9992
2 48316  53.0547  61.7781 0001264  91.5331 268.5803 15.06390191208730
STARLINK-2513           
1 48317U 21036AT  25039.36798296  .00002680  00000+0  19875-3 0  9992
2 48317  53.0557  61.7953 0001447  88.6592 271.4563 15.06394172209383
STARLINK-2509           
1 48318U 21036AU  25039.49236781  .00004255  00000+0  30447-3 0  9991
2 48318  53.0555  71.2389 0001502  88.8712 271.2449 15.06385060209252
STARLINK-2512           
1 48319U 21036AV  25039.48773670  .00002330  00000+0  17531-3 0  9995
2 48319  53.0557  71.2495 0001811  94.4083 265.7113 15.06390412209253
STARLINK-2029           
1 48320U 21036AW  25039.48499855 -.00001950  00000+0 -11209-3 0  9992
2 48320  53.0548  71.2705 0001732  97.8261 262.2925 15.06392938208613
STARLINK-2457           
1 48321U 21036AX  25039.48131407 -.00001153  00000+0 -58506-4 0  9996
2 48321  53.0554  71.2910 0001717  95.0845 265.0340 15.06386452208616
STARLINK-2515           
1 48323U 21036AZ  25039.40759375  .00001902  00000+0  14661-3 0  9993
2 48323  53.0585  71.6169 0001824 106.5100 253.6089 15.06393340208609
STARLINK-2495           
1 48325U 21036BB  25039.40022395  .00004065  00000+0  29161-3 0  9994
2 48325  53.0545  71.6513 0001487  87.2756 272.8404 15.06399047208601
STARLINK-2498           
1 48326U 21036BC  25039.39654549  .00003235  00000+0  23599-3 0  9992
2 48326  53.0554  71.6680 0001379  87.4799 272.6348 15.06392070208600
STARLINK-2502           
1 48327U 21036BD  25039.79091098  .00006094  00000+0  42740-3 0  9996
2 48327  53.0551  69.8972 0001211 101.4245 258.6880 15.06424268209251
STARLINK-2504           
1 48328U 21036BE  25039.38918474  .00007575  00000+0  52686-3 0  9993
2 48328  53.0550  71.7014 0001538  84.5489 275.5676 15.06402648208600
STARLINK-2510           
1 48329U 21036BF  25039.38548466 -.00000979  00000+0 -46862-4 0  9997
2 48329  53.0549  71.7166 0001464  90.1483 269.9674 15.06388879208606
