OBJECT_NAME,OBJECT_ID,EPOCH,MEAN_MOTION,ECCENTRICITY,INCLINATION,RA_OF_ASC_NODE,ARG_OF_PERICENTER,MEAN_ANOMALY,EPHEMERIS_TYPE,CLASSIFICATION_TYPE,NORAD_CAT_ID,ELEMENT_SET_NO,REV_AT_EPOCH,BSTAR,MEAN_MOTION_DOT,MEAN_MOTION_DDOT
STARLINK-2542,2021-036S,2025-02-08T17:52:37.333056,15.06396189,.0001514,53.0565,50.2671,97.1860,262.9301,0,U,48292,999,20951,.35182E-4,.243E-5,0
STARLINK-2550,2021-036T,2025-02-08T07:52:50.168352,15.06396351,.0001272,53.0564,51.9743,90.0783,270.0352,0,U,48293,999,20887,.59183E-4,.6E-5,0
STARLINK-2533,2021-036U,2025-02-08T07:47:30.117696,15.06397845,.0001494,53.0547,51.9914,94.3284,265.7876,0,U,48294,999,20887,-.17514E-3,-.2889E-4,0
STARLINK-2535,2021-036V,2025-02-08T07:42:12.863808,15.06387382,.0001362,53.0564,52.0076,91.2321,268.8824,0,U,48295,999,20887,.72381E-4,.796E-5,0
STARLINK-2559,2021-036Y,2025-02-08T07:26:16.575648,15.06401789,.0001406,53.0540,52.0503,93.4996,266.6153,0,U,48298,999,20887,.16447E-3,.2169E-4,0
STARLINK-2557,2021-036Z,2025-02-08T07:20:58.162272,15.06391593,.0001382,53.0550,52.0714,99.6842,260.4303,0,U,48299,999,20887,.89007E-4,.1044E-4,0
STARLINK-2538,2021-036AA,2025-02-08T08:44:34.751904,15.06391137,.0001658,53.0560,61.8139,99.3431,260.7746,0,U,48300,999,20874,.11008E-3,.1358E-4,0
STARLINK-2537,2021-036AB,2025-02-08T11:50:21.433632,15.06379626,.0001348,53.0555,61.2317,94.1083,266.0060,0,U,48301,999,20875,-.6284E-4,-.1217E-4,0
STARLINK-2530,2021-036AD,2025-02-08T12:54:07.991136,15.06394813,.0001371,53.0563,61.5726,93.0624,267.0522,0,U,48303,999,20875,.35279E-4,.244E-5,0
STARLINK-2524,2021-036AE,2025-02-08T08:23:20.011488,15.06395061,.000138,53.0549,61.8782,96.0011,264.1136,0,U,48304,999,20873,-.16496E-3,-.2737E-4,0
STARLINK-2519,2021-036AF,2025-02-08T08:02:12.931296,15.06388892,.0002164,53.0553,62.5236,88.5791,271.5446,0,U,48305,999,20931,-.10127E-3,-.1789E-4,0
STARLINK-2523,2021-036AG,2025-02-08T17:45:54.415296,15.06493293,.0001864,53.0550,60.1238,95.5821,264.5381,0,U,48306,999,20938,.29746E-2,.44418E-3,0
STARLINK-2517,2021-036AK,2025-02-08T07:56:48.185664,15.06400462,.0001375,53.0549,61.9617,88.6718,271.4428,0,U,48309,999,20873,.26471E-3,.3664E-4,0
STARLINK-2536,2021-036AL,2025-02-08T07:51:29.755872,15.06402020,.0001807,53.0555,61.9771,102.9021,257.2170,0,U,48310,999,20873,.59112E-4,.599E-5,0
STARLINK-2534,2021-036AM,2025-02-08T07:46:11.528256,15.06403089,.0001653,53.0559,61.9938,94.1659,265.9519,0,U,48311,999,20873,.15279E-3,.1995E-4,0
STARLINK-2061,2021-036AN,2025-02-08T18:49:38.958816,15.06381930,.0001513,53.0544,59.9265,87.5637,272.5525,0,U,48312,999,20944,.78766E-3,.11464E-3,0
STARLINK-2549,2021-036AQ,2025-02-08T09:05:48.310368,15.06392119,.0001333,53.0550,61.7461,93.2476,266.8665,0,U,48314,999,20873,.67894E-4,.73E-5,0
STARLINK-2506,2021-036AR,2025-02-08T09:00:30.443904,15.06396840,.0001719,53.0558,61.7621,82.4376,277.6808,0,U,48315,999,20873,.40008E-3,.5682E-4,0
STARLINK-2507,2021-036AS,2025-02-08T08:55:10.575552,15.06390191,.0001264,53.0547,61.7781,91.5331,268.5803,0,U,48316,999,20873,-.14101E-5,-.302E-5,0
STARLINK-2513,2021-036AT,2025-02-08T08:49:53.727744,15.06394172,.0001447,53.0557,61.7953,88.6592,271.4563,0,U,48317,999,20938,.19875E-3,.268E-4,0
STARLINK-2509,2021-036AU,2025-02-08T11:49:00.578784,15.06385060,.0001502,53.0555,71.2389,88.8712,271.2449,0,U,48318,999,20925,.30447E-3,.4255E-4,0
STARLINK-2512,2021-036AV,2025-02-08T11:42:20.450880,15.06390412,.0001811,53.0557,71.2495,94.4083,265.7113,0,U,48319,999,20925,.17531E-3,.233E-4,0
STARLINK-2029,2021-036AW,2025-02-08T11:38:23.874720,15.06392938,.0001732,53.0548,71.2705,97.8261,262.2925,0,U,48320,999,20861,-.11209E-3,-.195E-4,0
STARLINK-2457,2021-036AX,2025-02-08T11:33:05.535648,15.06386452,.0001717,53.0554,71.2910,95.0845,265.0340,0,U,48321,999,20861,-.58506E-4,-.1153E-4,0
STARLINK-2515,2021-036AZ,2025-02-08T09:46:56.100000,15.06393340,.0001824,53.0585,71.6169,106.5100,253.6089,0,U,48323,999,20860,.14661E-3,.1902E-4,0
STARLINK-2495,2021-036BB,2025-02-08T09:36:19.349280,15.06399047,.0001487,53.0545,71.6513,87.2756,272.8404,0,U,48325,999,20860,.29161E-3,.4065E-4,0
STARLINK-2498,2021-036BC,2025-02-08T09:31:01.530336,15.06392070,.0001379,53.0554,71.6680,87.4799,272.6348,0,U,48326,999,20860,.23599E-3,.3235E-4,0
STARLINK-2502,2021-036BD,2025-02-08T18:58:54.708672,15.06424268,.0001211,53.0551,69.8972,101.4245,258.6880,0,U,48327,999,20925,.4274E-3,.6094E-4,0
STARLINK-2504,2021-036BE,2025-02-08T09:20:25.561536,15.06402648,.0001538,53.0550,71.7014,84.5489,275.5676,0,U,48328,999,20860,.52686E-3,.7575E-4,0
STARLINK-2510,2021-036BF,2025-02-08T09:15:05.874624,15.06388879,.0001464,53.0549,71.7166,90.1483,269.9674,0,U,48329,999,20860,-.46862E-4,-.979E-5,0
